NORAD_CAT_ID,OBJECT_NAME,OBJECT_TYPE,EPOCH,MEAN_MOTION,ECCENTRICITY,INCLINATION,RA_OF_ASC_NODE,ARG_OF_PERICENTER,MEAN_ANOMALY,BSTAR,MEAN_MOTION_DOT,MEAN_MOTION_DDOT,TLE_LINE0,TLE_LINE1,TLE_LINE2,SEMIMAJOR_AXIS,PERIOD,APOGEE,PERIGEE,DECAYED
49173.0,STARLINK-3045,PAYLOAD,2023-10-20 11:18:21,14.98326959,0.0002486,69.9989,311.0999,261.5799,98.5078,0.00010711,1.185e-05,0.0,0 STARLINK-3045,1 49173U 21082AV  23293.47108700  .00001185  00000-0  10711-3 0  9991,2 49173  69.9989 311.0999 0002486 261.5799  98.5078 14.98326959115973,6950.202,96.107,573.795,570.339,0.0
49173.0,STARLINK-3045,PAYLOAD,2023-10-21 11:20:22,14.98332079,0.0002575,69.9984,308.5747,263.0064,97.0802,4.1423e-05,4.01e-06,0.0,0 STARLINK-3045,1 49173U 21082AV  23294.47248441  .00000401  00000-0  41423-4 0  9994,2 49173  69.9984 308.5747 0002575 263.0064  97.0802 14.98332079116128,6950.186,96.107,573.841,570.262,0.0
49173.0,STARLINK-3045,PAYLOAD,2023-10-21 17:44:54,14.98333414,0.0002565,69.9986,307.9007,263.9191,96.1676,8.1391e-05,8.78e-06,0.0,0 STARLINK-3045,1 49173U 21082AV  23294.73952277  .00000878  00000-0  81391-4 0  9998,2 49173  69.9986 307.9007 0002565 263.9191  96.1676 14.98333414116168,6950.182,96.107,573.83,570.265,0.0
49173.0,STARLINK-3045,PAYLOAD,2023-10-22 04:57:50,14.98349392,0.0002232,69.9975,306.722,277.956,82.1345,-0.00016615,-2.076e-05,0.0,0 STARLINK-3045,1 49173U 21082AV  23295.20683637 -.00002076  00000-0 -16615-3 0  9992,2 49173  69.9975 306.7220 0002232 277.9560  82.1345 14.98349392116234,6950.133,96.106,573.549,570.447,0.0
49173.0,STARLINK-3045,PAYLOAD,2023-10-22 11:22:22,14.98345874,0.000216,69.9977,306.0484,275.9649,84.1264,-8.742e-06,-1.97e-06,0.0,0 STARLINK-3045,1 49173U 21082AV  23295.47387431 -.00000197  00000-0 -87420-5 0  9990,2 49173  69.9977 306.0484 0002160 275.9649  84.1264 14.98345874116274,6950.144,96.106,573.51,570.508,0.0
49173.0,STARLINK-3045,PAYLOAD,2023-10-22 17:46:56,14.98313771,0.0002416,69.9986,305.3756,279.1302,80.9583,0.00044528,5.222e-05,0.0,0 STARLINK-3045,1 49173U 21082AV  23295.74093132  .00005222  00000-0  44528-3 0  9994,2 49173  69.9986 305.3756 0002416 279.1302  80.9583 14.98313771116318,6950.243,96.108,573.787,570.429,0.0
49173.0,STARLINK-3045,PAYLOAD,2023-10-23 03:23:44,14.98328477,0.0002532,69.9979,304.3651,264.6723,95.4147,0.00011179,1.241e-05,0.0,0 STARLINK-3045,1 49173U 21082AV  23296.14148397  .00001241  00000-0  11179-3 0  9996,2 49173  69.9979 304.3651 0002532 264.6723  95.4147 14.98328477116370,6950.198,96.107,573.822,570.303,0.0
49173.0,STARLINK-3045,PAYLOAD,2023-10-23 17:48:56,14.98333449,0.0002715,69.998,302.8499,269.1828,90.902,-4.8371e-05,-6.7e-06,0.0,0 STARLINK-3045,1 49173U 21082AV  23296.74232379 -.00000670  00000-0 -48371-4 0  9998,2 49173  69.9980 302.8499 0002715 269.1828  90.9020 14.98333449116469,6950.182,96.107,573.934,570.16,0.0
49173.0,STARLINK-3045,PAYLOAD,2023-10-24 05:01:53,14.98331894,0.0002814,69.9976,301.6716,268.9737,91.11,2.9753e-05,2.62e-06,0.0,0 STARLINK-3045,1 49173U 21082AV  23297.20964288  .00000262  00000-0  29753-4 0  9999,2 49173  69.9976 301.6716 0002814 268.9737  91.1100 14.98331894116531,6950.187,96.107,574.008,570.096,0.0
49173.0,STARLINK-3045,PAYLOAD,2023-10-24 09:50:09,14.98445785,0.0002946,69.9978,301.166,270.4176,89.6645,0.0013536,0.00016144,0.0,0 STARLINK-3045,1 49173U 21082AV  23297.40982746  .00016144  00000-0  13536-2 0  9996,2 49173  69.9978 301.1660 0002946 270.4176  89.6645 14.98445785116561,6949.835,96.1,573.747,569.652,0.0
49173.0,STARLINK-3045,PAYLOAD,2023-10-25 09:52:17,14.98344251,0.0002753,69.9979,298.6402,267.4838,92.6005,0.00033584,3.918e-05,0.0,0 STARLINK-3045,1 49173U 21082AV  23298.41130873  .00003918  00000-0  33584-3 0  9995,2 49173  69.9979 298.6402 0002753 267.4838  92.6005 14.98344251116710,6950.149,96.106,573.927,570.1,0.0
49173.0,STARLINK-3045,PAYLOAD,2023-10-26 05:05:54,14.98333572,0.0002869,69.9977,296.6207,268.7308,91.3523,0.00010682,1.182e-05,0.0,0 STARLINK-3045,1 49173U 21082AV  23299.21243936  .00001182  00000-0  10682-3 0  9994,2 49173  69.9977 296.6207 0002869 268.7308  91.3523 14.98333572116831,6950.182,96.107,574.041,570.053,0.0
49173.0,STARLINK-3045,PAYLOAD,2023-10-26 09:54:19,14.98325473,0.000279,69.9978,296.1161,268.5592,91.5247,0.00030122,3.502e-05,0.0,0 STARLINK-3045,1 49173U 21082AV  23299.41272142  .00003502  00000-0  30122-3 0  9996,2 49173  69.9978 296.1161 0002790 268.5592  91.5247 14.98325473116861,6950.207,96.107,574.011,570.133,0.0
49173.0,STARLINK-3045,PAYLOAD,2023-10-27 05:07:55,14.98316749,0.0002623,69.998,294.0962,266.5354,93.5505,0.00050654,5.954e-05,0.0,0 STARLINK-3045,1 49173U 21082AV  23300.21384014  .00005954  00000-0  50654-3 0  9994,2 49173  69.9980 294.0962 0002623 266.5354  93.5505 14.98316749116987,6950.234,96.108,573.922,570.276,0.0
49173.0,STARLINK-3045,PAYLOAD,2023-10-27 09:56:19,14.98327759,0.0002667,69.998,293.591,266.6431,93.4423,0.00040951,4.796e-05,0.0,0 STARLINK-3045,1 49173U 21082AV  23300.41411620  .00004796  00000-0  40951-3 0  9992,2 49173  69.9980 293.5910 0002667 266.6431  93.4423 14.98327759117015,6950.2,96.107,573.918,570.211,0.0
49173.0,STARLINK-3045,PAYLOAD,2023-10-27 16:20:50,14.98381305,0.0002794,69.9999,292.9164,278.745,81.3392,-0.0009051,-0.0001089,0.0,0 STARLINK-3045,1 49173U 21082AV  23300.68113800 -.00010890  00000-0 -90510-3 0  9990,2 49173  69.9999 292.9164 0002794 278.7450  81.3392 14.98381305117057,6950.034,96.104,573.841,569.957,0.0
49173.0,STARLINK-3045,PAYLOAD,2023-10-27 22:45:24,14.98331981,0.0002657,69.9998,292.2446,270.3642,89.7213,4.0696e-05,3.93e-06,0.0,0 STARLINK-3045,1 49173U 21082AV  23300.94819900  .00000393  00000-0  40696-4 0  9999,2 49173  69.9998 292.2446 0002657 270.3642  89.7213 14.98331981117094,6950.187,96.107,573.898,570.205,0.0
49173.0,STARLINK-3045,PAYLOAD,2023-10-28 00:21:32,14.98331225,0.000266,69.9998,292.0762,270.4775,89.6079,2.9417e-05,2.58e-06,0.0,0 STARLINK-3045,1 49173U 21082AV  23301.01495959  .00000258  00000-0  29417-4 0  9990,2 49173  69.9998 292.0762 0002660 270.4775  89.6079 14.98331225117107,6950.189,96.107,573.903,570.205,0.0
49173.0,STARLINK-3045,PAYLOAD,2023-10-28 09:58:21,14.98328576,0.0002314,69.9992,291.066,265.0593,95.0302,-3.4616e-05,-5.06e-06,0.0,0 STARLINK-3045,1 49173U 21082AV  23301.41552284 -.00000506  00000-0 -34616-4 0  9994,2 49173  69.9992 291.0660 0002314 265.0593  95.0302 14.98328576117162,6950.197,96.107,573.671,570.454,0.0
49173.0,STARLINK-3045,PAYLOAD,2023-10-28 16:22:52,14.98360541,0.0002768,69.9994,290.3929,275.3966,84.6877,-0.00054992,-6.653e-05,0.0,0 STARLINK-3045,1 49173U 21082AV  23301.68254959 -.00006653  00000-0 -54992-3 0  9998,2 49173  69.9994 290.3929 0002768 275.3966  84.6877 14.98360541117209,6950.098,96.105,573.887,570.04,0.0
49173.0,STARLINK-3045,PAYLOAD,2023-10-28 22:47:25,14.98334803,0.0002613,69.9987,289.7196,265.468,94.6181,8.3883e-05,9.08e-06,0.0,0 STARLINK-3045,1 49173U 21082AV  23301.94959535  .00000908  00000-0  83883-4 0  9996,2 49173  69.9987 289.7196 0002613 265.4680  94.6181 14.98334803117246,6950.178,96.107,573.859,570.227,0.0
49173.0,STARLINK-3045,PAYLOAD,2023-10-29 05:11:57,14.983381,0.0002723,69.9986,289.0463,266.4465,93.6382,0.00010658,1.179e-05,0.0,0 STARLINK-3045,1 49173U 21082AV  23302.21663288  .00001179  00000-0  10658-3 0  9994,2 49173  69.9986 289.0463 0002723 266.4465  93.6382 14.98338100117289,6950.168,96.106,573.925,570.14,0.0
49173.0,STARLINK-3045,PAYLOAD,2023-10-29 08:24:13,14.98339413,0.0002841,69.9985,288.7093,270.0913,89.9921,0.00014457,1.633e-05,0.0,0 STARLINK-3045,1 49173U 21082AV  23302.35015131  .00001633  00000-0  14457-3 0  9993,2 49173  69.9985 288.7093 0002841 270.0913  89.9921 14.98339413117301,6950.164,96.106,574.003,570.054,0.0
49173.0,STARLINK-3045,PAYLOAD,2023-10-29 16:24:53,14.98358767,0.0002526,69.9997,287.8678,274.6906,85.3964,-0.00050606,-6.13e-05,0.0,0 STARLINK-3045,1 49173U 21082AV  23302.68394753 -.00006130  00000-0 -50606-3 0  9994,2 49173  69.9997 287.8678 0002526 274.6906  85.3964 14.98358767117350,6950.104,96.105,573.725,570.213,0.0
49173.0,STARLINK-3045,PAYLOAD,2023-10-29 22:49:26,14.98327875,0.0002846,69.9992,287.195,271.7121,88.3712,0.00012745,1.428e-05,0.0,0 STARLINK-3045,1 49173U 21082AV  23302.95099871  .00001428  00000-0  12745-3 0  9992,2 49173  69.9992 287.1950 0002846 271.7121  88.3712 14.98327875117397,6950.199,96.107,574.042,570.086,0.0
49173.0,STARLINK-3045,PAYLOAD,2023-10-30 03:37:50,14.98326855,0.0002931,69.9985,286.6895,271.7781,88.3043,0.00011372,1.264e-05,0.0,0 STARLINK-3045,1 49173U 21082AV  23303.15127993  .00001264  00000-0  11372-3 0  9995,2 49173  69.9985 286.6895 0002931 271.7781  88.3043 14.98326855117426,6950.203,96.107,574.105,570.031,0.0
49173.0,STARLINK-3045,PAYLOAD,2023-10-30 16:26:55,14.98322286,0.0002859,69.9997,285.3422,273.3109,86.7723,0.00020122,2.308e-05,0.0,0 STARLINK-3045,1 49173U 21082AV  23303.68536279  .00002308  00000-0  20122-3 0  9997,2 49173  69.9997 285.3422 0002859 273.3109  86.7723 14.98322286117502,6950.217,96.107,574.069,570.095,0.0
49173.0,STARLINK-3045,PAYLOAD,2023-10-31 05:15:59,14.98337307,0.0002689,69.9991,283.9953,265.6684,94.4168,0.00010629,1.176e-05,0.0,0 STARLINK-3045,1 49173U 21082AV  23304.21943515  .00001176  00000-0  10629-3 0  9995,2 49173  69.9991 283.9953 0002689 265.6684  94.4168 14.98337307117589,6950.17,96.107,573.904,570.166,0.0
49173.0,STARLINK-3045,PAYLOAD,2023-10-31 08:28:15,14.98331934,0.0002791,69.999,283.6588,267.4409,92.6431,5.8316e-05,6.03e-06,0.0,0 STARLINK-3045,1 49173U 21082AV  23304.35295940  .00000603  00000-0  58316-4 0  9992,2 49173  69.9990 283.6588 0002791 267.4409  92.6431 14.98331934117604,6950.187,96.107,573.992,570.112,0.0
49173.0,STARLINK-3045,PAYLOAD,2023-10-31 16:28:56,14.98328994,0.0002824,69.9992,282.8166,263.1889,96.8949,0.00011791,1.314e-05,0.0,0 STARLINK-3045,1 49173U 21082AV  23304.68676003  .00001314  00000-0  11791-3 0  9996,2 49173  69.9992 282.8166 0002824 263.1889  96.8949 14.98328994117658,6950.196,96.107,574.024,570.098,0.0
